{
  "type": "FeatureCollection",
  "features": [
    {
      "type": "Feature",
      "properties": {
        "norad_id": 33412,
        "name": "COSMO-SKYMED 3",
        "group": "resource",
        "lat": 68.17433593303215,
        "lon": 46.54800370270802,
        "alt_km": 533.4782435189563,
        "timestamp": "2025-12-21T20:41:07.642457+00:00",
        "meta_object_name": "COSMO-SKYMED 3",
        "meta_object_id": "2008-054A",
        "meta_epoch": "2025-12-21T13:48:57.602016",
        "meta_mean_motion": 15.05425425,
        "meta_eccentricity": 0.00170455,
        "meta_inclination": 97.8462,
        "meta_ra_of_asc_node": 206.1164,
        "meta_arg_of_pericenter": 142.6606,
        "meta_mean_anomaly": 217.5808,
        "meta_ephemeris_type": 0,
        "meta_classification_type": "U",
        "meta_norad_cat_id": 33412,
        "meta_element_set_no": 999,
        "meta_rev_at_epoch": 93020,
        "meta_bstar": 6.2452159e-05,
        "meta_mean_motion_dot": 8.33e-06,
        "meta_mean_motion_ddot": 0,
        "tle_line1": "1 33412U 08054A   25355.57566669  .00000833  00000+0  62452-4 0  9996",
        "tle_line2": "2 33412  97.8462 206.1164 0017045 142.6606 217.5808 15.05425425930201"
      },
      "geometry": {
        "type": "Point",
        "coordinates": [
          46.54800370270802,
          68.17433593303215
        ]
      }
    },
    {
      "type": "Feature",
      "properties": {
        "norad_id": 33446,
        "name": "YAOGAN-4",
        "group": "resource",
        "lat": 66.1536313817223,
        "lon": -92.48418724770437,
        "alt_km": 620.9353574380584,
        "timestamp": "2025-12-21T20:41:07.642467+00:00",
        "meta_object_name": "YAOGAN-4",
        "meta_object_id": "2008-061A",
        "meta_epoch": "2025-12-21T09:02:40.964928",
        "meta_mean_motion": 14.8270568,
        "meta_eccentricity": 0.00130663,
        "meta_inclination": 97.9195,
        "meta_ra_of_asc_node": 285.3917,
        "meta_arg_of_pericenter": 292.927,
        "meta_mean_anomaly": 67.0564,
        "meta_ephemeris_type": 0,
        "meta_classification_type": "U",
        "meta_norad_cat_id": 33446,
        "meta_element_set_no": 999,
        "meta_rev_at_epoch": 91931,
        "meta_bstar": 0.00013803316,
        "meta_mean_motion_dot": 1.061e-05,
        "meta_mean_motion_ddot": 0,
        "tle_line1": "1 33446U 08061A   25355.37686302  .00001061  00000+0  13803-3 0  9995",
        "tle_line2": "2 33446  97.9195 285.3917 0013066 292.9270  67.0564 14.82705680919316"
      },
      "geometry": {
        "type": "Point",
        "coordinates": [
          -92.48418724770437,
          66.1536313817223
        ]
      }
    },
    {
      "type": "Feature",
      "properties": {
        "norad_id": 33492,
        "name": "GOSAT (IBUKI)",
        "group": "resource",
        "lat": -17.35400921856331,
        "lon": 106.88193553871432,
        "alt_km": 674.212024784968,
        "timestamp": "2025-12-21T20:41:07.642476+00:00",
        "meta_object_name": "GOSAT (IBUKI)",
        "meta_object_id": "2009-002A",
        "meta_epoch": "2025-12-21T12:34:59.966688",
        "meta_mean_motion": 14.67541076,
        "meta_eccentricity": 9.931e-05,
        "meta_inclination": 98.0772,
        "meta_ra_of_asc_node": 104.0056,
        "meta_arg_of_pericenter": 101.8988,
        "meta_mean_anomaly": 258.2328,
        "meta_ephemeris_type": 0,
        "meta_classification_type": "U",
        "meta_norad_cat_id": 33492,
        "meta_element_set_no": 999,
        "meta_rev_at_epoch": 90540,
        "meta_bstar": 0.00012639174,
        "meta_mean_motion_dot": 6.69e-06,
        "meta_mean_motion_ddot": 0,
        "tle_line1": "1 33492U 09002A   25355.52430517  .00000669  00000+0  12639-3 0  9993",
        "tle_line2": "2 33492  98.0772 104.0056 0000993 101.8988 258.2328 14.67541076905407"
      },
      "geometry": {
        "type": "Point",
        "coordinates": [
          106.88193553871432,
          -17.35400921856331
        ]
      }
    },
    {
      "type": "Feature",
      "properties": {
        "norad_id": 35681,
        "name": "DEIMOS-1",
        "group": "resource",
        "lat": -55.97291530671015,
        "lon": 167.6217353948764,
        "alt_km": 653.2790553131581,
        "timestamp": "2025-12-21T20:41:07.642486+00:00",
        "meta_object_name": "DEIMOS-1",
        "meta_object_id": "2009-041A",
        "meta_epoch": "2025-12-21T14:25:47.187840",
        "meta_mean_motion": 14.74963646,
        "meta_eccentricity": 0.00025714,
        "meta_inclination": 97.7145,
        "meta_ra_of_asc_node": 155.7918,
        "meta_arg_of_pericenter": 65.5267,
        "meta_mean_anomaly": 294.6211,
        "meta_ephemeris_type": 0,
        "meta_classification_type": "U",
        "meta_norad_cat_id": 35681,
        "meta_element_set_no": 999,
        "meta_rev_at_epoch": 88070,
        "meta_bstar": 3.7212553e-05,
        "meta_mean_motion_dot": 2.03e-06,
        "meta_mean_motion_ddot": 0,
        "tle_line1": "1 35681U 09041A   25355.60124060  .00000203  00000+0  37213-4 0  9990",
        "tle_line2": "2 35681  97.7145 155.7918 0002571  65.5267 294.6211 14.74963646880708"
      },
      "geometry": {
        "type": "Point",
        "coordinates": [
          167.6217353948764,
          -55.97291530671015
        ]
      }
    },
    {
      "type": "Feature",
      "properties": {
        "norad_id": 35682,
        "name": "DUBAISAT-1",
        "group": "resource",
        "lat": -46.573196486834135,
        "lon": -62.11490387989408,
        "alt_km": 649.3831470733676,
        "timestamp": "2025-12-21T20:41:07.642497+00:00",
        "meta_object_name": "DUBAISAT-1",
        "meta_object_id": "2009-041B",
        "meta_epoch": "2025-12-21T14:46:20.515008",
        "meta_mean_motion": 14.74626553,
        "meta_eccentricity": 0.00092341,
        "meta_inclination": 97.9798,
        "meta_ra_of_asc_node": 126.1649,
        "meta_arg_of_pericenter": 282.6201,
        "meta_mean_anomaly": 77.3975,
        "meta_ephemeris_type": 0,
        "meta_classification_type": "U",
        "meta_norad_cat_id": 35682,
        "meta_element_set_no": 999,
        "meta_rev_at_epoch": 87892,
        "meta_bstar": 0.0001606321,
        "meta_mean_motion_dot": 1.021e-05,
        "meta_mean_motion_ddot": 0,
        "tle_line1": "1 35682U 09041B   25355.61551522  .00001021  00000+0  16063-3 0  9997",
        "tle_line2": "2 35682  97.9798 126.1649 0009234 282.6201  77.3975 14.74626553878928"
      },
      "geometry": {
        "type": "Point",
        "coordinates": [
          -62.11490387989408,
          -46.573196486834135
        ]
      }
    },
    {
      "type": "Feature",
      "properties": {
        "norad_id": 35931,
        "name": "OCEANSAT-2",
        "group": "resource",
        "lat": 72.33302806522707,
        "lon": -157.46704354071727,
        "alt_km": 887.0110526354329,
        "timestamp": "2025-12-21T20:41:07.642507+00:00",
        "meta_object_name": "OCEANSAT-2",
        "meta_object_id": "2009-051A",
        "meta_epoch": "2025-12-21T15:02:11.448960",
        "meta_mean_motion": 13.99622987,
        "meta_eccentricity": 0.001599,
        "meta_inclination": 98.2217,
        "meta_ra_of_asc_node": 355.3254,
        "meta_arg_of_pericenter": 21.7522,
        "meta_mean_anomaly": 338.4321,
        "meta_ephemeris_type": 0,
        "meta_classification_type": "U",
        "meta_norad_cat_id": 35931,
        "meta_element_set_no": 999,
        "meta_rev_at_epoch": 85449,
        "meta_bstar": -4.5689332e-05,
        "meta_mean_motion_dot": -1.04e-06,
        "meta_mean_motion_ddot": 0,
        "tle_line1": "1 35931U 09051A   25355.62652140 -.00000104  00000+0 -45689-4 0  9994",
        "tle_line2": "2 35931  98.2217 355.3254 0015990  21.7522 338.4321 13.99622987854492"
      },
      "geometry": {
        "type": "Point",
        "coordinates": [
          -157.46704354071727,
          72.33302806522707
        ]
      }
    },
    {
      "type": "Feature",
      "properties": {
        "norad_id": 35946,
        "name": "WORLDVIEW-2 (WV-2)",
        "group": "resource",
        "lat": 35.976304316277655,
        "lon": 60.605547484746,
        "alt_km": 760.0915582924144,
        "timestamp": "2025-12-21T20:41:07.642516+00:00",
        "meta_object_name": "WORLDVIEW-2 (WV-2)",
        "meta_object_id": "2009-055A",
        "meta_epoch": "2025-12-21T12:09:55.283040",
        "meta_mean_motion": 14.37727569,
        "meta_eccentricity": 0.00048774,
        "meta_inclination": 98.4778,
        "meta_ra_of_asc_node": 66.4711,
        "meta_arg_of_pericenter": 49.1744,
        "meta_mean_anomaly": 310.9865,
        "meta_ephemeris_type": 0,
        "meta_classification_type": "U",
        "meta_norad_cat_id": 35946,
        "meta_element_set_no": 999,
        "meta_rev_at_epoch": 85011,
        "meta_bstar": 5.867145e-05,
        "meta_mean_motion_dot": 1.33e-06,
        "meta_mean_motion_ddot": 0,
        "tle_line1": "1 35946U 09055A   25355.50688985  .00000133  00000+0  58671-4 0  9992",
        "tle_line2": "2 35946  98.4778  66.4711 0004877  49.1744 310.9865 14.37727569850110"
      },
      "geometry": {
        "type": "Point",
        "coordinates": [
          60.605547484746,
          35.976304316277655
        ]
      }
    }
  ]
}